[
    {
        "Altitude(m)": 612502.2054526284,
        "Argument of Periapsis(deg)": 0.0,
        "Eccentricity": 0.0,
        "Inclination(deg)": 60.0,
        "Latitude(deg)": -28.136008233388583,
        "Longitude(deg)": 32.14829805330912,
        "Mean Anomaly(deg)": -32.727300000000035,
        "RAAN(deg)": 150.0,
        "Satellite Name": "Test1 680",
        "Satellite Number": 680,
        "Semi-Major Axis(m)": 6980739.136638005,
        "Time(s)": 0
    },
    {
        "Altitude(m)": 612308.6530361109,
        "Argument of Periapsis(deg)": 0.00010418945913296404,
        "Eccentricity": 0.0,
        "Inclination(deg)": 60.0,
        "Latitude(deg)": -27.62306297395813,
        "Longitude(deg)": 32.501771271024815,
        "Mean Anomaly(deg)": -32.10719385453818,
        "RAAN(deg)": 149.99957995086027,
        "Satellite Name": "Test1 680",
        "Satellite Number": 680,
        "Semi-Major Axis(m)": 6980739.136638005,
        "Time(s)": 10
    }
]